C/2011 M1 (LINEAR),h,09/06.2691/2011,70.1570,324.7720,119.7814,1.002458,0.905926,2000,12.0,4.0
# From MPC 87913
P/2011 N1 (ASH),e,35.6917,77.6339,330.5946,6.258612,0.0629487,0.54372290,105.0640,12/21.0/2016,2000,g 11.5,4.0
# From MPC 75714
P/2011 NO1 (Elenin),e,15.2507,295.9996,263.6324,5.519695,0.0760031,0.77618156,164.0819,12/21.0/2016,2000,g 15.0,4.0
# From MPC 76569
C/2011 N2 (McNaught),e,33.7199,273.9028,356.9466,1328,0.0000204,0.99807907,0.0000,10/19.2096/2011,2000,g 11.5,4.0
# From MPC 87476
C/2011 O1 (LINEAR),e,76.5648,89.7862,232.3354,698.3808,0.0000534,0.99443044,0.0000,08/17.7282/2012,2000,g  7.0,4.0
# From MPC 78186
P/2011 P1 (McNaught),e,5.6452,4.3023,349.1012,7.491629,0.0480662,0.32400316,113.1583,12/21.0/2016,2000,g  9.0,4.0
# From MPC 84931
C/2011 P2 (PANSTARRS),e,9.0063,203.9843,75.8757,9.711903,0.0325647,0.36919995,74.7499,12/21.0/2016,2000,g  8.5,4.0
# From MPC 79867
C/2011 Q1 (PANSTARRS),e,94.8916,142.2213,135.8047,3839,0.0000041,0.99823719,0.0000,06/29.1128/2011,2000,g  9.5,4.0
# From MPC 79342
C/2011 Q2 (McNaught),e,37.2223,287.1234,34.8344,828.1997,0.0000414,0.99836620,0.0000,01/17.8852/2012,2000,g 10.0,4.0
# From MPC 77806
P/2011 Q3 (McNaught),e,6.0524,32.0351,311.0680,4.969023,0.0889810,0.53175603,175.6795,12/21.0/2016,2000,g 13.5,4.0
# From MPC 79342
C/2011 Q4 (SWAN),e,147.9112,252.0243,1.8705,41.18368,0.0037292,0.97279775,0.0000,09/18.7084/2011,2000,g 12.5,4.0
# From MPC 88325
C/2011 R1 (McNaught),e,116.1620,221.3177,308.8031,11046,0.0000008,0.99981146,0.0000,10/18.5978/2012,2000,g  6.5,4.0
# From MPC 90269
P/2011 R3 (Novichonok-Gerke),e,19.2573,190.3936,224.0321,4.811041,0.0933997,0.26409526,161.7376,12/21.0/2016,2000,g 11.0,4.0
# From MPC 98558
P/2011 S1 (Gibbs),e,2.6825,218.9304,193.4861,8.622751,0.0389256,0.20061233,32.9986,12/21.0/2016,2000,g  8.0,4.0
# From MPC 80897
C/2011 S2 (Kowalski),e,17.5604,288.0546,192.3314,16.44361,0.0147811,0.93181180,27.8340,12/21.0/2016,2000,g 15.5,4.0
# From MPC 78186
P/2011 U1 (PANSTARRS),e,15.2401,134.9813,353.3731,4.053638,0.1207637,0.41727563,198.5578,12/21.0/2016,2000,g 14.5,4.0
# From MPC 93583
P/2011 U2 (Bressi),e,9.7324,264.8778,139.7220,5.166813,0.0839209,0.08953808,158.1231,12/21.0/2016,2000,g 10.0,4.0
# From MPC 78186
C/2011 U3 (PANSTARRS),e,116.7143,228.1900,287.7045,2301,0.0000089,0.99953413,0.0000,06/02.9830/2012,2000,g 14.0,4.0
# From MPC 79022
P/2011 UA134 (Spacewatch-PANSTARRS),e,10.4928,40.6199,32.5723,5.595522,0.0744634,0.63028846,137.2754,12/21.0/2016,2000,g 17.5,4.0
# From MPC 88325
C/2011 UF305 (LINEAR),e,94.0181,297.5288,122.0234,3531,0.0000047,0.99939300,0.0000,07/21.1979/2012,2000,g  9.0,4.0
# From MPC 77406
P/2011 V1 (Boattini),e,7.3623,47.0097,269.2803,3.849856,0.1304780,0.55365717,275.3703,12/21.0/2016,2000,g 15.5,4.0
# From MPC 79022
P/2011 VJ5 (Lemmon),e,3.9754,169.9196,315.2751,3.404395,0.1569077,0.55716981,288.4429,12/21.0/2016,2000,g 17.5,4.0
# From MPC 82718
P/2011 W1 (PANSTARRS),e,3.7172,161.8182,282.8028,4.657951,0.0980419,0.28629025,176.0219,12/21.0/2016,2000,g 11.5,4.0
# From MPC 80897
P/2011 W2 (Rinner),e,13.7581,231.9738,221.2955,3.806025,0.1327384,0.39279739,248.5476,12/21.0/2016,2000,g 13.0,4.0
# From MPC 77807
C/2011 W3 (Lovejoy),e,135.0315,327.6259,54.5030,71.02581,0.0016466,0.99991352,0.0000,12/14.7774/2011,2000,g 14.5,4.0
# From MPC 79342
P/2011 Y2 (Boattini),e,6.3629,309.5071,131.9523,6.238846,0.0632481,0.71074311,109.8970,12/21.0/2016,2000,g 15.0,4.0
# From MPC 79342
C/2011 Y3 (Boattini),e,26.5148,84.8538,340.6592,11.78260,0.0243693,0.70224054,47.5231,12/21.0/2016,2000,g  8.0,4.0
# From MPC 93583
C/2012 A1 (PANSTARRS),h,12/04.4117/2013,120.9282,278.0070,192.0886,1.002195,7.605035,2000,6.0,4.0
# From MPC 91611
C/2012 A2 (LINEAR),e,125.9034,191.4252,101.7196,1238,0.0000226,0.99714364,0.0000,11/05.9633/2012,2000,g  8.5,4.0
# From MPC 80898
P/2012 A3 (SOHO),e,11.4565,176.4026,217.7696,2.572281,0.2389057,0.77555030,68.4347,12/21.0/2016,2000,g 17.0,4.0
# From MPC 94669
P/2012 B1 (PANSTARRS),e,7.6232,36.1548,162.3962,6.511581,0.0593163,0.41206574,73.8859,12/21.0/2016,2000,g  9.0,4.0
# From MPC 82719
C/2012 B3 (La Sagra),e,107.0196,252.9753,50.7777,4835,0.0000029,0.99926704,0.0000,12/05.9303/2011,2000,g 10.0,4.0
# From MPC 83519
C/2012 BJ98 (Lemmon),e,2.6365,124.0148,73.0335,17.23101,0.0137796,0.87479626,21.3841,12/21.0/2016,2000,g 12.5,4.0
# From MPC 89309
C/2012 C1 (McNaught),e,96.2436,300.6267,279.8849,2733,0.0000069,0.99823086,0.0000,02/04.9749/2013,2000,g  7.5,4.0
# From MPC 80898
C/2012 C2 (Bruenjes),h,03/13.1910/2012,162.7863,117.9792,62.5723,1.002856,0.796827,2000,17.0,4.0
# From MPC 78590
P/2012 C3 (PANSTARRS),e,9.0920,135.3677,344.9542,9.748681,0.0323806,0.63011148,359.9758,10/06.0/2011,2000,g 13.0,4.0
# From MPC 84022
C/2012 CH17 (MOSS),e,27.7526,125.8925,137.9182,2511,0.0000078,0.99948682,0.0000,09/28.8669/2012,2000,g 11.0,4.0
# From MPC 84022
C/2012 E1 (Hill),e,122.5722,286.2941,48.7930,1081,0.0000277,0.99305852,0.0000,06/30.7943/2011,2000,g  6.5,4.0
# From MPC 79023
C/2012 E2 (SWAN),p,03/15.0314/2012,144.2218,83.3435,0.006952,7.7078,2000,10.0,4.0
# From MPC 82318
C/2012 E3 (PANSTARRS),e,105.5697,5.4998,103.4971,206.7916,0.0003314,0.98145809,0.0000,05/10.6346/2011,2000,g 10.0,4.0
# From MPC 79868
C/2012 F1 (Gibbs),e,159.5585,130.3390,300.9007,72.29461,0.0016034,0.96453768,2.8353,12/21.0/2016,2000,g 14.0,4.0
# From MPC 84931
P/2012 F2 (PANSTARRS),e,14.7386,227.0898,33.0951,6.322611,0.0619954,0.54274308,83.7351,12/21.0/2016,2000,g 12.0,4.0
# From MPC102094
C/2012 F3 (PANSTARRS),h,04/06.7989/2015,11.3545,164.6115,104.0285,1.002714,3.456835,2000,6.5,4.0
# From MPC 90766
C/2012 F6 (Lemmon),e,82.6187,332.6910,304.8501,412.6254,0.0001176,0.99824001,0.0000,03/24.7055/2013,2000,g 10.0,4.0
# From MPC 79344
P/2012 G1 (PANSTARRS),e,11.6925,282.5440,286.1149,4.172871,0.1156250,0.38072240,359.9500,06/01.0/2012,2000,g 15.0,4.0
# From MPC 80046
C/2012 H2 (McNaught),e,92.7932,184.0619,295.9749,16.10427,0.0152508,0.89291764,25.8287,12/21.0/2016,2000,g 15.5,4.0
# From MPC 89726
C/2012 J1 (Catalina),h,12/06.3168/2012,34.0935,235.1240,147.3702,1.001361,3.160989,2000,8.0,4.0
# From MPC101094
C/2012 K1 (PANSTARRS),h,08/27.8312/2014,142.4057,317.7540,203.1293,1.000472,1.054292,2000,5.6,3.2
# From MPC 80898
P/2012 K3 (Gibbs),e,13.1973,125.8753,172.3028,3.620147,0.1430918,0.42391516,221.1716,12/21.0/2016,2000,g 15.0,4.0
# From MPC 88326
C/2012 K5 (LINEAR),e,92.8222,279.1908,139.3565,685.7311,0.0000549,0.99832989,0.0000,11/28.3420/2012,2000,g 12.0,4.0
# From MPC 94278
C/2012 K6 (McNaught),e,135.2205,206.9049,338.8842,1459,0.0000177,0.99769812,0.0000,05/20.7339/2013,2000,g  8.5,4.0
# From MPC100577
C/2012 K8 (Lemmon),e,106.1174,312.7982,75.8846,17128,0.0000004,0.99962253,0.0000,08/19.4438/2014,2000,g  6.0,4.0
# From MPC 88326
C/2012 L1 (LINEAR),e,87.2369,271.8583,140.2331,604.0522,0.0000664,0.99625284,0.0000,12/24.8229/2012,2000,g 10.5,4.0
# From MPC 88326
C/2012 L2 (LINEAR),e,70.9195,270.3314,205.8690,618.3785,0.0000641,0.99755250,0.0000,05/08.9612/2013,2000,g 10.0,4.0
# From MPC 84023
C/2012 L3 (LINEAR),e,134.1386,53.4344,106.9183,294.9190,0.0001946,0.98968812,0.0000,06/10.8929/2012,2000,g 13.0,4.0
# From MPC102094
C/2012 LP26 (Palomar),h,08/16.4821/2015,25.3771,153.9879,145.1386,1.000253,6.535714,2000,6.5,4.0
# From MPC 88326
P/2012 NJ (La Sagra),e,84.4116,315.7355,338.2815,8.455919,0.0400832,0.84766105,66.2472,12/21.0/2016,2000,g 14.5,4.0
# From MPC 84625
C/2012 OP (Siding Spring),e,114.8324,267.3026,351.3182,697.0384,0.0000536,0.99482634,0.0000,12/03.6571/2012,2000,g 13.5,2.0
# From MPC 81470
P/2012 O1 (McNaught),e,7.4297,92.5210,237.9771,3.529962,0.1486104,0.59780144,241.1310,12/21.0/2016,2000,g 17.5,4.0
# From MPC 80899
P/2012 O2 (McNaught),e,24.4966,120.7414,183.4396,3.617013,0.1432778,0.53302678,235.8676,12/21.0/2016,2000,g 17.0,4.0
# From MPC 82720
P/2012 O3 (McNaught),e,16.5778,336.4070,344.6676,4.580599,0.1005358,0.64541221,160.0575,12/21.0/2016,2000,g 16.5,4.0
# From MPC 90767
C/2012 Q1 (Kowalski),e,45.2310,184.4293,139.0228,25.99822,0.0074351,0.63570505,13.2447,12/21.0/2016,2000,g  4.0,4.0
# From MPC 89726
C/2012 S1 (ISON),h,11/28.4275/2013,62.6627,295.5633,345.6674,1.000259,0.012762,2000,8.5,3.2
# From MPC 82720
P/2012 S2 (La Sagra),e,8.6738,51.2951,312.6468,4.399735,0.1067983,0.69233263,169.9672,12/21.0/2016,2000,g 17.0,4.0
# From MPC 88327
C/2012 S3 (PANSTARRS),e,112.9516,121.2754,183.6622,4656,0.0000031,0.99950447,0.0000,08/30.4589/2013,2000,g 10.0,4.0
# From MPC 88327
C/2012 S4 (PANSTARRS),e,126.5601,173.1162,163.5232,24142,0.0000003,0.99982012,0.0000,06/27.5838/2013,2000,g  8.5,4.0
# From MPC 82720
P/2012 SB6 (Lemmon),e,11.0713,9.1181,12.1118,3.876237,0.1291482,0.39520834,194.3477,12/21.0/2016,2000,g 14.0,4.0
# From MPC 88694
P/2012 T1 (PANSTARRS),e,11.0575,85.7274,299.9607,3.149208,0.1763608,0.23738486,275.8885,12/21.0/2016,2000,g 15.0,4.0
# From MPC 82320
P/2012 T2 (PANSTARRS),e,12.5539,73.7402,311.0023,5.746661,0.0715452,0.16015373,95.5598,12/21.0/2016,2000,g 10.0,4.0
# From MPC 80900
P/2012 T3 (PANSTARRS),e,9.5484,114.3988,195.4568,6.161588,0.0644414,0.61504289,109.6734,12/21.0/2016,2000,g 15.0,4.0
# From MPC 84023
C/2012 T4 (McNaught),e,24.1261,99.4166,219.8138,118.9927,0.0007593,0.98360266,0.0000,10/10.5586/2012,2000,g 13.5,4.0
# From MPC 84023
C/2012 T5 (Bressi),h,02/24.1254/2013,72.2383,230.2930,318.1973,1.000389,0.323373,2000,13.0,4.0
# From MPC 82720
C/2012 T6 (Kowalski),e,33.3249,186.1260,197.9838,14.08821,0.0186389,0.87409245,29.4499,12/21.0/2016,2000,g 15.0,4.0
# From MPC 87914
P/2012 TK8 (Tenagra),e,6.2856,289.3091,126.6673,4.164589,0.1159701,0.26721207,153.8313,12/21.0/2016,2000,g 13.0,4.0
# From MPC 95208
C/2012 U1 (PANSTARRS),e,56.3488,26.9658,70.1947,3017,0.0000059,0.99825340,0.0000,07/05.3631/2014,2000,g  7.5,4.0
# From MPC 82720
P/2012 U2 (PANSTARRS),e,10.7407,185.2388,228.6801,7.163629,0.0514049,0.49888794,76.9459,12/21.0/2016,2000,g 12.5,4.0
# From MPC 84024
P/2012 US27 (Siding Spring),e,39.3058,49.1828,1.1482,5.168784,0.0838729,0.64769970,118.5284,12/21.0/2016,2000,g 13.5,4.0
